[{"OBJECT_NAME":"STARLINK-35029","OBJECT_ID":"2025-194M","EPOCH":"2026-03-09T14:11:50.511840","MEAN_MOTION":15.05651803,"ECCENTRICITY":0.0002711,"INCLINATION":97.6012,"RA_OF_ASC_NODE":284.3048,"ARG_OF_PERICENTER":90.4361,"MEAN_ANOMALY":269.7176,"EPHEMERIS_TYPE":0,"CLASSIFICATION_TYPE":"U","NORAD_CAT_ID":65445,"ELEMENT_SET_NO":999,"REV_AT_EPOCH":2963,"BSTAR":0.00035762,"MEAN_MOTION_DOT":5.104e-5,"MEAN_MOTION_DDOT":0},{"OBJECT_NAME":"SL-18 R\/B","OBJECT_ID":"2001-007B","EPOCH":"2026-03-09T23:25:11.323200","MEAN_MOTION":15.07301441,"ECCENTRICITY":0.00085554,"INCLINATION":97.6926,"RA_OF_ASC_NODE":87.6817,"ARG_OF_PERICENTER":353.225,"MEAN_ANOMALY":6.886,"EPHEMERIS_TYPE":0,"CLASSIFICATION_TYPE":"U","NORAD_CAT_ID":26703,"ELEMENT_SET_NO":999,"REV_AT_EPOCH":64619,"BSTAR":0.00021543689,"MEAN_MOTION_DOT":3.19e-5,"MEAN_MOTION_DDOT":0}]
